{
    "links": {
        "self": "http://www.neowsapp.com/rest/v1/neo/3893225?api_key=iIulBulltgU6a56xZRHN4H3l9WmuAYTsLGpBGhQ2"
    },
    "id": "3893225",
    "neo_reference_id": "3893225",
    "name": "(2019 VU5)",
    "designation": "2019 VU5",
    "nasa_jpl_url": "http://ssd.jpl.nasa.gov/sbdb.cgi?sstr=3893225",
    "absolute_magnitude_h": 24.4,
    "estimated_diameter": {
        "kilometers": {
            "estimated_diameter_min": 0.0350392641,
            "estimated_diameter_max": 0.0783501764
        },
        "meters": {
            "estimated_diameter_min": 35.0392641108,
            "estimated_diameter_max": 78.3501764334
        },
        "miles": {
            "estimated_diameter_min": 0.0217723826,
            "estimated_diameter_max": 0.0486845275
        },
        "feet": {
            "estimated_diameter_min": 114.9582192654,
            "estimated_diameter_max": 257.0543928497
        }
    },
    "is_potentially_hazardous_asteroid": false,
    "close_approach_data": [
        {
            "close_approach_date": "1977-04-06",
            "close_approach_date_full": "1977-Apr-06 00:08",
            "epoch_date_close_approach": 229133280000,
            "relative_velocity": {
                "kilometers_per_second": "36.715878249",
                "kilometers_per_hour": "132177.1616962704",
                "miles_per_hour": "82129.7480551076"
            },
            "miss_distance": {
                "astronomical": "0.475289114",
                "lunar": "184.887465346",
                "kilometers": "71102239.08858718",
                "miles": "44180882.674895884"
            },
            "orbiting_body": "Earth"
        },
        {
            "close_approach_date": "2019-11-14",
            "close_approach_date_full": "2019-Nov-14 10:03",
            "epoch_date_close_approach": 1573725780000,
            "relative_velocity": {
                "kilometers_per_second": "22.6247291772",
                "kilometers_per_hour": "81449.0250380078",
                "miles_per_hour": "50609.2566965333"
            },
            "miss_distance": {
                "astronomical": "0.0089266651",
                "lunar": "3.4724727239",
                "kilometers": "1335410.085163337",
                "miles": "829785.3492625706"
            },
            "orbiting_body": "Earth"
        }
    ],
    "orbital_data": {
        "orbit_id": "8",
        "orbit_determination_date": "2020-05-18 06:40:00",
        "first_observation_date": "2019-11-15",
        "last_observation_date": "2019-11-23",
        "data_arc_in_days": 8,
        "observations_used": 129,
        "orbit_uncertainty": "8",
        "minimum_orbit_intersection": ".00666743",
        "jupiter_tisserand_invariant": "3.660",
        "epoch_osculation": "2458804.5",
        "eccentricity": ".7059385376511619",
        "semi_major_axis": "1.843921654840018",
        "inclination": "6.503085511393528",
        "ascending_node_longitude": "47.81013635414836",
        "orbital_period": "914.5598338180644",
        "perihelion_distance": ".5422262982789453",
        "perihelion_argument": "268.1383196414182",
        "aphelion_distance": "3.145617011401092",
        "perihelion_time": "2458755.135692453439",
        "mean_anomaly": "19.43137021726806",
        "mean_motion": ".3936319819525506",
        "equinox": "J2000",
        "orbit_class": {
            "orbit_class_type": "APO",
            "orbit_class_description": "Near-Earth asteroid orbits which cross the Earth’s orbit similar to that of 1862 Apollo",
            "orbit_class_range": "a (semi-major axis) > 1.0 AU; q (perihelion) < 1.017 AU"
        }
    },
    "is_sentry_object": false
}